satname,norad_id,inclination_deg,eccentricity,mean_motion_rev_per_day,perigee_km,apogee_km,l1,l2
STARLINK-1234,45190,53.0329,0.0002114,15.84296081,316.8919068420373,319.7231635915259,1 45190U 20012N   26187.83335647  .00113950  00000+0  48834-3 0  9995,2 45190  53.0329  94.9090 0002114 194.0886 111.6376 15.84296081  6036
STARLINK-1269,45197,53.1532,0.0003163,15.37483949,451.39155545022095,455.71328217656264,1 45197U 20012V   26187.74096389  .00031125  00000+0  84129-3 0  9999,2 45197  53.1532 204.3437 0003163  20.5209 339.5922 15.37483949353176
STARLINK-1154,45198,53.0395,0.0004341,15.66123509,367.0801253633508,372.93886615096835,1 45198U 20012W   26187.33431780  .00055266  00000+0  52969-3 0  9992,2 45198  53.0395 154.8869 0004341  61.9998 298.1456 15.66123509353777
STARLINK-1199,45201,53.154,0.0005755,15.37422223,449.8035321989064,457.6670171870783,1 45201U 20012Z   26187.71235760  .00031090  00000+0  84177-3 0  9994,2 45201  53.1540 188.7500 0005755  22.0892 338.0359 15.37422223353414
STARLINK-1209,45206,53.0353,0.000118,15.73821156,347.19412992831076,348.78149538409707,1 45206U 20012AE  26187.08400095  .00084089  00000+0  58179-3 0  9993,2 45206  53.0353 115.3388 0001180 159.6820 200.4245 15.73821156353410
STARLINK-1231,45212,53.0373,0.0002673,15.29687783,474.912573873924,478.57719372900465,1 45212U 20012AL  26187.70628822  .00022203  00000+0  77147-3 0  9995,2 45212  53.0373 185.2281 0002673  81.0713 279.0589 15.29687783353391
STARLINK-1271,45217,53.1539,0.00053,15.37604295,449.5753369269578,456.81654984694796,1 45217U 20012AR  26187.70639225  .00030865  00000+0  83094-3 0  9990,2 45217  53.1539 188.8630 0005300  25.9550 334.1718 15.37604295353410
STARLINK-1191,45222,53.1527,0.000338,15.41870405,438.284588696034,442.8940476871312,1 45222U 20012AW  26187.22031816  .00015918  00000+0  37806-3 0  9997,2 45222  53.1527 163.3088 0003380  11.3365 348.7716 15.41870405353734
STARLINK-1212,45223,53.0369,0.0001476,15.72603774,350.4652893428047,352.45186595732775,1 45223U 20012AX  26187.85923625  .00057394  00000+0  42102-3 0  9994,2 45223  53.0369 127.0453 0001476 140.9679 219.1446 15.72603774354270
STARLINK-1215,45225,53.1554,0.0005596,15.37670559,449.1769793589119,456.8223875350259,1 45225U 20012AZ  26187.31310287  .00012557  00000+0  34433-3 0  9991,2 45225  53.1554 164.9486 0005596  29.7299 330.4022 15.37670559353670
STARLINK-1221,45227,53.0635,0.0002841,15.46348371,425.4855715391486,429.3524884753997,1 45227U 20012BB  26187.04999779  .00018555  00000+0  37754-3 0  9995,2 45227  53.0635  67.0436 0002841  49.5170 310.6084 15.46348371354995
STARLINK-1222,45228,53.0509,0.0003819,15.57191335,393.2031973650646,398.3771229299855,1 45228U 20012BC  26187.27357902  .00031781  00000+0  43421-3 0  9991,2 45228  53.0509 131.0721 0003819  81.7453 278.3991 15.57191335354055
STARLINK-1226,45229,53.1533,0.0005174,15.47275706,421.17976975483816,428.2193450244249,1 45229U 20012BD  26187.30241307  .00058559  00000+0  11299-2 0  9996,2 45229  53.1533 159.1765 0005174  28.8327 331.2966 15.47275706353695
STARLINK-1227,45230,53.1513,0.00051,15.47383292,420.9149441925565,427.8535158471768,1 45230U 20012BE  26187.24590252  .00081448  00000+0  15579-2 0  9995,2 45230  53.1513 159.5286 0005100  22.2815 337.8414 15.47383292353809
STARLINK-1246,45235,53.1536,0.0004874,15.37656132,449.7128951209843,456.37192881176816,1 45235U 20012BK  26187.74567375  .00041737  00000+0  11166-2 0  9990,2 45235  53.1536 203.9291 0004874 356.5882   3.5088 15.37656132353239
STARLINK-1270,45237,53.0383,0.0001778,15.71499513,353.4136267101185,355.8077917955279,1 45237U 20012BM  26187.15364943  .00068857  00000+0  52756-3 0  9996,2 45237  53.0383 132.4246 0001778 145.1630 214.9504 15.71499513354136
STARLINK-1279,45360,53.0319,0.0003985,15.85468641,312.33826538181165,317.67269994049275,1 45360U 20019A   26187.83335647  .00122638  00000+0  49598-3 0  9992,2 45360  53.0319 229.3985 0003985  14.7512 197.6742 15.85468641  6026
STARLINK-1301,45361,53.0301,0.0006094,15.87066844,306.435261191531,314.58738576818814,1 45361U 20019B   26187.83335647  .00130492  00000+0  48730-3 0  9997,2 45361  53.0301 231.3946 0006094  18.0925 268.2676 15.87066844  6007
STARLINK-1262,45366,53.1538,0.0001901,15.36683245,454.62620373177924,457.2245142406646,1 45366U 20019G   26187.67088987  .00041404  00000+0  11434-2 0  9990,2 45366  53.1538 330.9390 0001901 230.3548 129.7288 15.36683245347996
STARLINK-1273,45367,53.0416,0.0001204,15.6143195,382.7058516181587,384.3340586129498,1 45367U 20019H   26187.83335647  .00104007  00000+0  11865-2 0  9994,2 45367  53.0416 300.5809 0001204 322.0654 258.4999 15.61431950  5983
STARLINK-1277,45369,53.0403,0.0002266,15.70226682,356.7221447756028,359.77507473394235,1 45369U 20019K   26187.78339763  .00048722  00000+0  39602-3 0  9994,2 45369  53.0403 293.0667 0002266   6.4707 353.6338 15.70226682348518
STARLINK-1281,45370,53.1581,0.0001619,15.37490737,452.4262636619633,454.6383581848404,1 45370U 20019L   26187.66687426  .00039167  00000+0  10547-2 0  9994,2 45370  53.1581 330.4260 0001619 185.9679 174.1305 15.37490737348006
STARLINK-1300,45374,53.1594,0.0001909,15.38051525,450.56776758129945,453.1754648709748,1 45374U 20019Q   26187.66816964  .00028202  00000+0  74973-3 0  9991,2 45374  53.1594 330.2106 0001909 202.3921 157.7000 15.38051525348005
STARLINK-1302,45375,53.0437,0.0001039,15.7046602,356.86433916010265,358.264017864999,1 45375U 20019R   26187.56314213  .00050119  00000+0  40316-3 0  9997,2 45375  53.0437 289.9605 0001039 106.4771 253.6360 15.70466020348535
STARLINK-1304,45376,53.0405,5.71e-05,15.66217057,369.35548422774445,370.1260918711396,1 45376U 20019S   26187.76793281  .00037900  00000+0  36445-3 0  9997,2 45376  53.0405 291.1234 0000571 246.5994 113.4960 15.66217057348535
STARLINK-1305,45377,53.0359,0.0006305,15.75530613,338.8839306605114,347.3594378613634,1 45377U 20019T   26187.49794072  .00067240  00000+0  43329-3 0  9996,2 45377  53.0359 269.1421 0006305 352.4126   7.6797 15.75530613348822
STARLINK-1319,45379,53.0336,0.0003505,15.83261101,318.8774075728961,323.5736607093286,1 45379U 20019V   26187.83335647  .00015944  00000+0  75406-4 0  9991,2 45379  53.0336 257.7317 0003505  11.6443 254.5340 15.83261101  6034
STARLINK-1266,45383,53.0432,0.0003559,15.68686727,360.2575092733896,365.05560612776026,1 45383U 20019Z   26187.54698566  .00043897  00000+0  38084-3 0  9994,2 45383  53.0432 276.6489 0003559 350.6276   9.4673 15.68686727348713
STARLINK-1267,45384,53.0406,0.0002048,15.73161808,348.48916772817665,351.2449581923647,1 45384U 20019AA  26187.47848606  .00057175  00000+0  40960-3 0  9999,2 45384  53.0406 267.7859 0002048  26.7392 333.3731 15.73161808348830
STARLINK-1272,45386,53.0371,0.0002543,15.78048089,334.2640567449771,337.67885230494903,1 45386U 20019AC  26187.41958391  .00074154  00000+0  42725-3 0  9995,2 45386  53.0371 245.9176 0002543  38.3145 321.8055 15.78048089349133
STARLINK-1274,45387,53.0162,0.0005784,15.67821292,361.23662518185574,369.03724446966135,1 45387U 20019AD  26187.83335647  .00075956  00000+0  67593-3 0  9996,2 45387  53.0162 244.9241 0005784 306.0554 228.8041 15.67821292  5990
STARLINK-1280,45388,53.0303,0.000651,15.90217774,297.324384975861,306.02149751936395,1 45388U 20019AE  26187.83335647  .00116634  16065-4  38630-3 0  9999,2 45388  53.0303 248.7930 0006510  10.6952 106.5182 15.90217774  6059
STARLINK-1283,45389,53.0329,0.0004136,15.75520847,340.3695350152493,345.9293831742125,1 45389U 20019AF  26187.44018584  .00098673  00000+0  63224-3 0  9991,2 45389  53.0329 244.9358 0004136 341.1631  18.9234 15.75520847349154
STARLINK-1284,45390,53.0388,0.0003594,15.73589114,346.2314139856826,351.0666277774926,1 45390U 20019AG  26187.48946341  .00057975  00000+0  40764-3 0  9992,2 45390  53.0388 268.9495 0003594  55.3483 304.7874 15.73589114348813
STARLINK-1297,45395,53.0393,0.000292,15.7666179,337.9448501558918,341.86818757090714,1 45395U 20019AM  26187.74238634  .00070716  00000+0  43363-3 0  9991,2 45395  53.0393 266.5462 0002920  15.8967 344.2143 15.76661790348050
STARLINK-1307,45397,53.0514,0.0001774,15.58672475,390.29723082090277,392.6990973771253,1 45397U 20019AP  26187.55898919  .00027431  00000+0  35572-3 0  9999,2 45397  53.0514 276.5200 0001774 343.0112  17.0840 15.58672475348547
STARLINK-1255,45399,53.032,8.12e-05,15.68579085,362.41756301713394,363.51231797226956,1 45399U 20019AR  26187.42472909  .00041584  00000+0  36280-3 0  9996,2 45399  53.0320 243.0001 0000812 296.7614  63.3319 15.68579085348982
STARLINK-1260,45404,53.1542,0.0001581,15.40744058,442.8335262423261,444.99065816528037,1 45404U 20019AW  26187.78090006  .00039409  00000+0  95416-3 0  9995,2 45404  53.1542 291.9507 0001581 229.9478 130.1388 15.40744058348263
STARLINK-1263,45405,53.1556,0.0002515,15.37828807,450.8131303817818,454.2489564076095,1 45405U 20019AX  26187.80695103  .00035099  00000+0  93643-3 0  9999,2 45405  53.1556 293.7008 0002515 267.5650  92.5066 15.37828807348246
STARLINK-1265,45406,53.1547,0.0001008,15.41169669,441.96850905530664,443.3435809331768,1 45406U 20019AY  26187.57176992  .00043510  00000+0  10372-2 0  9998,2 45406  53.1547 292.8510 0001008 315.1394  44.9530 15.41169669348231
STARLINK-1278,45408,53.0368,0.000233,15.77886177,334.86625662892675,337.9952452008529,1 45408U 20019BA  26187.83335647  .00019076  00000+0  11430-3 0  9990,2 45408  53.0368 264.7980 0002330  27.5086  88.0662 15.77886177  5978
STARLINK-1296,45412,53.1549,0.0001275,15.4131446,441.3592783616332,443.09847165976043,1 45412U 20019BE  26187.60775657  .00039135  00000+0  92993-3 0  9990,2 45412  53.1549 292.3292 0001275 218.1093 141.9823 15.41314460348241
STARLINK-1309,45414,53.0569,0.000273,15.76103488,339.65845138448276,343.32736931553336,1 45414U 20019BG  26187.47634745  .00064722  00000+0  40739-3 0  9990,2 45414  53.0569 260.8632 0002730  27.9061 332.2104 15.76103488348634
